{"type": "FeatureCollection", "features": [ {"type": "Feature", "properties": {"norad_id": 66870, "name": "STARLINK-36114", "group": "last-30-days", "lat": -35.29646028948684, "lon": -68.52802886289017, "alt_km": 373.52962431639844, "timestamp": "2025-12-22T14:45:56.098384+00:00", "meta": {"OBJECT_NAME": "STARLINK-36114", "OBJECT_ID": "2025-281Y", "EPOCH": "2025-12-22T06:00:02.000160", "MEAN_MOTION": 15.67247098, "ECCENTRICITY": 0.00014522, "INCLINATION": 43.0004, "RA_OF_ASC_NODE": 64.2205, "ARG_OF_PERICENTER": 270.9009, "MEAN_ANOMALY": 65.0177, "EPHEMERIS_TYPE": 0, "CLASSIFICATION_TYPE": "U", "NORAD_CAT_ID": 66870, "ELEMENT_SET_NO": 999, "REV_AT_EPOCH": 282, "BSTAR": -0.020380319, "MEAN_MOTION_DOT": -0.01986529, "MEAN_MOTION_DDOT": 0}, "tle": {"line1": "1 66870U 25281Y   25356.25002315 -.01986529  00000+0 -20380-1 0  9999", "line2": "2 66870  43.0004  64.2205 0001452 270.9009  65.0177 15.67247098  2825"}}, "geometry": {"type": "Point", "coordinates": [-68.52802886289017, -35.29646028948684]}}, {"type": "Feature", "properties": {"norad_id": 66871, "name": "STARLINK-36095", "group": "last-30-days", "lat": -36.12646425277058, "lon": -66.40778495007426, "alt_km": 373.6128617855484, "timestamp": "2025-12-22T14:45:56.098416+00:00", "meta": {"OBJECT_NAME": "STARLINK-36095", "OBJECT_ID": "2025-281Z", "EPOCH": "2025-12-22T06:00:02.000160", "MEAN_MOTION": 15.67246741, "ECCENTRICITY": 0.00013459, "INCLINATION": 43.0002, "RA_OF_ASC_NODE": 64.216, "ARG_OF_PERICENTER": 271.1632, "MEAN_ANOMALY": 66.671, "EPHEMERIS_TYPE": 0, "CLASSIFICATION_TYPE": "U", "NORAD_CAT_ID": 66871, "ELEMENT_SET_NO": 999, "REV_AT_EPOCH": 295, "BSTAR": -0.020367213, "MEAN_MOTION_DOT": -0.01985297, "MEAN_MOTION_DDOT": 0}, "tle": {"line1": "1 66871U 25281Z   25356.25002315 -.01985297  00000+0 -20367-1 0  9996", "line2": "2 66871  43.0002  64.2160 0001345 271.1632  66.6710 15.67246741  2958"}}, "geometry": {"type": "Point", "coordinates": [-66.40778495007426, -36.12646425277058]}}, {"type": "Feature", "properties": {"norad_id": 66872, "name": "STARLINK-36082", "group": "last-30-days", "lat": -36.91955728703765, "lon": -64.24060601817092, "alt_km": 373.6472460471605, "timestamp": "2025-12-22T14:45:56.098427+00:00", "meta": {"OBJECT_NAME": "STARLINK-36082", "OBJECT_ID": "2025-281AA", "EPOCH": "2025-12-22T06:00:02.000160", "MEAN_MOTION": 15.67249005, "ECCENTRICITY": 0.00013214, "INCLINATION": 43.0003, "RA_OF_ASC_NODE": 64.2109, "ARG_OF_PERICENTER": 270.2701, "MEAN_ANOMALY": 69.4845, "EPHEMERIS_TYPE": 0, "CLASSIFICATION_TYPE": "U", "NORAD_CAT_ID": 66872, "ELEMENT_SET_NO": 999, "REV_AT_EPOCH": 282, "BSTAR": -0.020451311, "MEAN_MOTION_DOT": -0.01992651, "MEAN_MOTION_DDOT": 0}, "tle": {"line1": "1 66872U 25281AA  25356.25002315 -.01992651  00000+0 -20451-1 0  9993", "line2": "2 66872  43.0003  64.2109 0001321 270.2701  69.4845 15.67249005  2826"}}, "geometry": {"type": "Point", "coordinates": [-64.24060601817092, -36.91955728703765]}}, {"type": "Feature", "properties": {"norad_id": 66873, "name": "STARLINK-36128", "group": "last-30-days", "lat": -39.046995628072025, "lon": -57.480957535292596, "alt_km": 373.6990811088872, "timestamp": "2025-12-22T14:45:56.098438+00:00", "meta": {"OBJECT_NAME": "STARLINK-36128", "OBJECT_ID": "2025-281AB", "EPOCH": "2025-12-22T06:00:02.000160", "MEAN_MOTION": 15.67254072, "ECCENTRICITY": 0.00013286, "INCLINATION": 43.0008, "RA_OF_ASC_NODE": 64.196, "ARG_OF_PERICENTER": 270.4521, "MEAN_ANOMALY": 75.0536, "EPHEMERIS_TYPE": 0, "CLASSIFICATION_TYPE": "U", "NORAD_CAT_ID": 66873, "ELEMENT_SET_NO": 999, "REV_AT_EPOCH": 295, "BSTAR": -0.020546933, "MEAN_MOTION_DOT": -0.02001211, "MEAN_MOTION_DDOT": 0}, "tle": {"line1": "1 66873U 25281AB  25356.25002315 -.02001211  00000+0 -20547-1 0  9994", "line2": "2 66873  43.0008  64.1960 0001328 270.4521  75.0536 15.67254072  2959"}}, "geometry": {"type": "Point", "coordinates": [-57.480957535292596, -39.046995628072025]}}, {"type": "Feature", "properties": {"norad_id": 66874, "name": "STARLINK-36129", "group": "last-30-days", "lat": -37.672184267724205, "lon": -62.029556958804385, "alt_km": 373.6584592467407, "timestamp": "2025-12-22T14:45:56.098450+00:00", "meta": {"OBJECT_NAME": "STARLINK-36129", "OBJECT_ID": "2025-281AC", "EPOCH": "2025-12-22T06:00:02.000160", "MEAN_MOTION": 15.67251008, "ECCENTRICITY": 0.00013416, "INCLINATION": 43.0005, "RA_OF_ASC_NODE": 64.2058, "ARG_OF_PERICENTER": 269.9997, "MEAN_ANOMALY": 71.6747, "EPHEMERIS_TYPE": 0, "CLASSIFICATION_TYPE": "U", "NORAD_CAT_ID": 66874, "ELEMENT_SET_NO": 999, "REV_AT_EPOCH": 295, "BSTAR": -0.020515949, "MEAN_MOTION_DOT": -0.01998347, "MEAN_MOTION_DDOT": 0}, "tle": {"line1": "1 66874U 25281AC  25356.25002315 -.01998347  00000+0 -20516-1 0  9995", "line2": "2 66874  43.0005  64.2058 0001341 269.9997  71.6747 15.67251008  2953"}}, "geometry": {"type": "Point", "coordinates": [-62.029556958804385, -37.672184267724205]}}, {"type": "Feature", "properties": {"norad_id": 66875, "name": "STARLINK-36053", "group": "last-30-days", "lat": -39.665461642348205, "lon": -55.14554548480518, "alt_km": 373.72767833074886, "timestamp": "2025-12-22T14:45:56.098462+00:00", "meta": {"OBJECT_NAME": "STARLINK-36053", "OBJECT_ID": "2025-281AD", "EPOCH": "2025-12-22T06:00:02.000160", "MEAN_MOTION": 15.6724882, "ECCENTRICITY": 0.00013123, "INCLINATION": 43.0006, "RA_OF_ASC_NODE": 64.1903, "ARG_OF_PERICENTER": 271.8167, "MEAN_ANOMALY": 75.6063, "EPHEMERIS_TYPE": 0, "CLASSIFICATION_TYPE": "U", "NORAD_CAT_ID": 66875, "ELEMENT_SET_NO": 999, "REV_AT_EPOCH": 295, "BSTAR": -0.020451378, "MEAN_MOTION_DOT": -0.01992636, "MEAN_MOTION_DDOT": 0}, "tle": {"line1": "1 66875U 25281AD  25356.25002315 -.01992636  00000+0 -20451-1 0  9999", "line2": "2 66875  43.0006  64.1903 0001312 271.8167  75.6063 15.67248820  2955"}}, "geometry": {"type": "Point", "coordinates": [-55.14554548480518, -39.665461642348205]}}, {"type": "Feature", "properties": {"norad_id": 66876, "name": "STARLINK-35702", "group": "last-30-days", "lat": -38.38052506213604, "lon": -59.78007613292301, "alt_km": 373.68820265850627, "timestamp": "2025-12-22T14:45:56.098472+00:00", "meta": {"OBJECT_NAME": "STARLINK-35702", "OBJECT_ID": "2025-281AE", "EPOCH": "2025-12-22T06:00:02.000160", "MEAN_MOTION": 15.67251349, "ECCENTRICITY": 0.00013449, "INCLINATION": 43.0005, "RA_OF_ASC_NODE": 64.201, "ARG_OF_PERICENTER": 272.2894, "MEAN_ANOMALY": 71.2973, "EPHEMERIS_TYPE": 0, "CLASSIFICATION_TYPE": "U", "NORAD_CAT_ID": 66876, "ELEMENT_SET_NO": 999, "REV_AT_EPOCH": 295, "BSTAR": -0.020476645, "MEAN_MOTION_DOT": -0.01995008, "MEAN_MOTION_DDOT": 0}, "tle": {"line1": "1 66876U 25281AE  25356.25002315 -.01995008  00000+0 -20477-1 0  9994", "line2": "2 66876  43.0005  64.2010 0001344 272.2894  71.2973 15.67251349  2954"}}, "geometry": {"type": "Point", "coordinates": [-59.78007613292301, -38.38052506213604]}}, {"type": "Feature", "properties": {"norad_id": 66877, "name": "ZQ-3 R/B", "group": "last-30-days", "lat": 20.544606396145472, "lon": 33.414364359132854, "alt_km": 1029.8470391575065, "timestamp": "2025-12-22T14:45:56.098483+00:00", "meta": {"OBJECT_NAME": "ZQ-3 R/B", "OBJECT_ID": "2025-282A", "EPOCH": "2025-12-22T06:32:00.857760", "MEAN_MOTION": 14.78845817, "ECCENTRICITY": 0.06990257, "INCLINATION": 56.9486, "RA_OF_ASC_NODE": 20.6424, "ARG_OF_PERICENTER": 236.7311, "MEAN_ANOMALY": 116.4873, "EPHEMERIS_TYPE": 0, "CLASSIFICATION_TYPE": "U", "NORAD_CAT_ID": 66877, "ELEMENT_SET_NO": 999, "REV_AT_EPOCH": 279, "BSTAR": 0.00019233159, "MEAN_MOTION_DOT": 0.01095592, "MEAN_MOTION_DDOT": 7.816011e-06}, "tle": {"line1": "1 66877U 25282A   25356.27223215  .01095592  78160-5  19233-3 0  9997", "line2": "2 66877  56.9486  20.6424 0699025 236.7311 116.4873 14.78845817  2797"}}, "geometry": {"type": "Point", "coordinates": [33.414364359132854, 20.544606396145472]}}, {"type": "Feature", "properties": {"norad_id": 66878, "name": "STARLINK-35866", "group": "last-30-days", "lat": -34.53710593718134, "lon": -6.65735112629275, "alt_km": 354.9533131174376, "timestamp": "2025-12-22T14:45:56.098496+00:00", "meta": {"OBJECT_NAME": "STARLINK-35866", "OBJECT_ID": "2025-283A", "EPOCH": "2025-12-22T06:00:02.000160", "MEAN_MOTION": 15.74503746, "ECCENTRICITY": 0.00010987, "INCLINATION": 53.1579, "RA_OF_ASC_NODE": 26.2208, "ARG_OF_PERICENTER": 77.5334, "MEAN_ANOMALY": 327.1254, "EPHEMERIS_TYPE": 0, "CLASSIFICATION_TYPE": "U", "NORAD_CAT_ID": 66878, "ELEMENT_SET_NO": 999, "REV_AT_EPOCH": 395, "BSTAR": -0.014070761, "MEAN_MOTION_DOT": -0.01827765, "MEAN_MOTION_DDOT": 0}, "tle": {"line1": "1 66878U 25283A   25356.25002315 -.01827765  00000+0 -14071-1 0  9995", "line2": "2 66878  53.1579  26.2208 0001098  77.5334 327.1254 15.74503746  3957"}}, "geometry": {"type": "Point", "coordinates": [-6.65735112629275, -34.53710593718134]}}, {"type": "Feature", "properties": {"norad_id": 66879, "name": "STARLINK-35749", "group": "last-30-days", "lat": -31.876312291699573, "lon": -3.391623094312282, "alt_km": 354.3820386448615, "timestamp": "2025-12-22T14:45:56.098508+00:00", "meta": {"OBJECT_NAME": "STARLINK-35749", "OBJECT_ID": "2025-283B", "EPOCH": "2025-12-22T06:00:02.000160", "MEAN_MOTION": 15.74473783, "ECCENTRICITY": 8.606e-05, "INCLINATION": 53.158, "RA_OF_ASC_NODE": 26.2126, "ARG_OF_PERICENTER": 65.5807, "MEAN_ANOMALY": 342.9196, "EPHEMERIS_TYPE": 0, "CLASSIFICATION_TYPE": "U", "NORAD_CAT_ID": 66879, "ELEMENT_SET_NO": 999, "REV_AT_EPOCH": 395, "BSTAR": -0.013780747, "MEAN_MOTION_DOT": -0.01792582, "MEAN_MOTION_DDOT": 0}, "tle": {"line1": "1 66879U 25283B   25356.25002315 -.01792582  00000+0 -13781-1 0  9991", "line2": "2 66879  53.1580  26.2126 0000860  65.5807 342.9196 15.74473783  3954"}}, "geometry": {"type": "Point", "coordinates": [-3.391623094312282, -31.876312291699573]}}]}